{
  "norad_id": 46743,
  "name": "STARLINK-1892",
  "history": [
    {
      "epoch": "2026-03-28T14:20:40.277760",
      "apogee_km": 405.19076750487784,
      "perigee_km": 403.58737834123986,
      "latitude_deg": -32.42021718145552,
      "longitude_deg": -8.321913599967957,
      "semi_major_axis_km": 6782.526072923059,
      "eccentricity": 0.0001182,
      "inclination_deg": 53.0447,
      "raan_deg": 202.4469,
      "arg_perigee_deg": 56.852,
      "mean_anomaly_deg": 303.2603,
      "mean_motion_rev_day": 15.54230954
    }
  ]
}