{"fetched_at":"2026-03-29T16:36:15Z","count":15609,"tles":[{"name":"STARLINK-1892","line1":"1 46743U 20074E   26087.59768840  .00114253  00000+0  17042-2 0  9998","line2":"2 46743  53.0447 202.4469 0001182  56.8520 303.2603 15.54230954300013","category":"Starlink"}]}